COMMENT,ORIGINATOR,NORAD_CAT_ID,OBJECT_NAME,OBJECT_TYPE,CLASSIFICATION_TYPE,INTLDES,EPOCH,EPOCH_MICROSECONDS,MEAN_MOTION,ECCENTRICITY,INCLINATION,RA_OF_ASC_NODE,ARG_OF_PERICENTER,MEAN_ANOMALY,EPHEMERIS_TYPE,ELEMENT_SET_NO,REV_AT_EPOCH,BSTAR,MEAN_MOTION_DOT,MEAN_MOTION_DDOT,FILE,TLE_LINE0,TLE_LINE1,TLE_LINE2,OBJECT_ID,OBJECT_NUMBER,SEMIMAJOR_AXIS,PERIOD,APOGEE,PERIGEE,DECAYED,date
GENERATED VIA SPACETRACK.ORG API,18 SPCS,46301,SPACEBEE-20,PAYLOAD,U,20061AF,2023/3/30 18:17,392288,15.46898828,0.0004086,97.4142,165.9733,235.1068,124.9797,0,999,14222,0.0039334,0.00202743,0,3875726,0 SPACEBEE-20,1 46301U 20061AF  23089.76182167  .00202743  00000-0  39334-2 0  9995,2 46301  97.4142 165.9733 0004086 235.1068 124.9797 15.46898828142229,2020-061AF,46301,6803.941,93.089,428.587,423.026,1,
GENERATED VIA SPACETRACK.ORG API,18 SPCS,46301,SPACEBEE-20,PAYLOAD,U,20061AF,2023/3/31 3:35,826720,15.47057198,0.0004084,97.4145,166.3708,233.8419,126.2453,0,999,14228,0.0039517,0.00204854,0,3875903,0 SPACEBEE-20,1 46301U 20061AF  23090.14992855  .00204854  00000-0  39517-2 0  9990,2 46301  97.4145 166.3708 0004084 233.8419 126.2453 15.47057198142280,2020-061AF,46301,6803.477,93.08,428.121,422.564,1,
GENERATED VIA SPACETRACK.ORG API,18 SPCS,46301,SPACEBEE-20,PAYLOAD,U,20061AF,2023/3/31 16:00,847328,15.47244682,0.0004058,97.414,166.9005,232.8491,127.2389,0,999,14236,0.0037266,0.00194163,0,3876546,0 SPACEBEE-20,1 46301U 20061AF  23090.66734777  .00194163  00000-0  37266-2 0  9994,2 46301  97.4140 166.9005 0004058 232.8491 127.2389 15.47244682142365,2020-061AF,46301,6802.927,93.069,427.553,422.032,1,
GENERATED VIA SPACETRACK.ORG API,18 SPCS,46301,SPACEBEE-20,PAYLOAD,U,20061AF,2023/4/1 4:25,104192,15.47441518,0.0004087,97.4138,167.4302,232.5723,127.5155,0,999,14244,0.0035568,0.00186388,0,3877270,0 SPACEBEE-20,1 46301U 20061AF  23091.18470028  .00186388  00000-0  35568-2 0  9991,2 46301  97.4138 167.4302 0004087 232.5723 127.5155 15.47441518142445,2020-061AF,46301,6802.351,93.057,426.996,421.435,1,
GENERATED VIA SPACETRACK.ORG API,18 SPCS,46301,SPACEBEE-20,PAYLOAD,U,20061AF,2023/4/1 16:50,562400,15.47595235,0.0004176,97.4137,167.9604,232.2869,127.8003,0,999,14252,0.0030736,0.00161396,0,3877412,0 SPACEBEE-20,1 46301U 20061AF  23091.70199725  .00161396  00000-0  30736-2 0  9995,2 46301  97.4137 167.9604 0004176 232.2869 127.8003 15.47595235142521,2020-061AF,46301,6801.9,93.048,426.606,420.925,1,
GENERATED VIA SPACETRACK.ORG API,18 SPCS,46301,SPACEBEE-20,PAYLOAD,U,20061AF,2023/4/1 16:50,562400,15.47595235,0.0004176,97.4137,167.9604,232.2869,127.8003,0,999,14252,0.0030736,0.00161396,0,3877516,0 SPACEBEE-20,1 46301U 20061AF  23091.70199725  .00161396  00000-0  30736-2 0  9995,2 46301  97.4137 167.9604 0004176 232.2869 127.8003 15.47595235142521,2020-061AF,46301,6801.9,93.048,426.606,420.925,1,
GENERATED VIA SPACETRACK.ORG API,18 SPCS,46301,SPACEBEE-20,PAYLOAD,U,20061AF,2023/4/2 3:42,916768,15.47766267,0.0004188,97.4137,168.4244,231.3428,128.7448,0,999,14259,0.0035067,0.00185822,0,3877704,0 SPACEBEE-20,1 46301U 20061AF  23092.15458237  .00185822  00000-0  35067-2 0  9993,2 46301  97.4137 168.4244 0004188 231.3428 128.7448 15.47766267142596,2020-061AF,46301,6801.399,93.037,426.112,420.416,1,
GENERATED VIA SPACETRACK.ORG API,18 SPCS,46301,SPACEBEE-20,PAYLOAD,U,20061AF,2023/4/2 3:42,916768,15.47766267,0.0004188,97.4137,168.4244,231.3428,128.7448,0,999,14259,0.0035067,0.00185822,0,3878126,0 SPACEBEE-20,1 46301U 20061AF  23092.15458237  .00185822  00000-0  35067-2 0  9993,2 46301  97.4137 168.4244 0004188 231.3428 128.7448 15.47766267142596,2020-061AF,46301,6801.399,93.037,426.112,420.416,1,
GENERATED VIA SPACETRACK.ORG API,18 SPCS,46301,SPACEBEE-20,PAYLOAD,U,20061AF,2023/4/2 17:40,92704,15.47952776,0.0004184,97.4139,169.0211,231.4721,128.6155,0,999,14268,0.0032172,0.00171258,0,3878302,0 SPACEBEE-20,1 46301U 20061AF  23092.73641311  .00171258  00000-0  32172-2 0  9996,2 46301  97.4139 169.0211 0004184 231.4721 128.6155 15.47952776142688,2020-061AF,46301,6800.853,93.026,425.563,419.872,1,
GENERATED VIA SPACETRACK.ORG API,18 SPCS,46301,SPACEBEE-20,PAYLOAD,U,20061AF,2023/4/2 17:40,92704,15.47952776,0.0004184,97.4139,169.0211,231.4721,128.6155,0,999,14268,0.0032172,0.00171258,0,3878419,0 SPACEBEE-20,1 46301U 20061AF  23092.73641311  .00171258  00000-0  32172-2 0  9996,2 46301  97.4139 169.0211 0004184 231.4721 128.6155 15.47952776142688,2020-061AF,46301,6800.853,93.026,425.563,419.872,1,
GENERATED VIA SPACETRACK.ORG API,18 SPCS,46301,SPACEBEE-20,PAYLOAD,U,20061AF,2023/4/3 10:44,164192,15.48164886,0.0004366,97.4137,169.7503,231.3814,128.7046,0,999,14279,0.0027867,0.00149003,0,3878882,0 SPACEBEE-20,1 46301U 20061AF  23093.44744403  .00149003  00000-0  27867-2 0  9999,2 46301  97.4137 169.7503 0004366 231.3814 128.7046 15.48164886142791,2020-061AF,46301,6800.232,93.013,425.066,419.128,1,
GENERATED VIA SPACETRACK.ORG API,18 SPCS,46301,SPACEBEE-20,PAYLOAD,U,20061AF,2023/4/3 10:44,164192,15.48164886,0.0004366,97.4137,169.7503,231.3814,128.7046,0,999,14279,0.0027867,0.00149003,0,3879059,0 SPACEBEE-20,1 46301U 20061AF  23093.44744403  .00149003  00000-0  27867-2 0  9999,2 46301  97.4137 169.7503 0004366 231.3814 128.7046 15.48164886142791,2020-061AF,46301,6800.232,93.013,425.066,419.128,1,
GENERATED VIA SPACETRACK.ORG API,18 SPCS,46301,SPACEBEE-20,PAYLOAD,U,20061AF,2023/4/3 15:23,235648,15.48222597,0.0004364,97.4136,169.9493,231.7513,128.3345,0,999,14282,0.0028081,0.00150477,0,3879321,0 SPACEBEE-20,1 46301U 20061AF  23093.64134532  .00150477  00000-0  28081-2 0  9993,2 46301  97.4136 169.9493 0004364 231.7513 128.3345 15.48222597142824,2020-061AF,46301,6800.063,93.01,424.895,418.96,1,
GENERATED VIA SPACETRACK.ORG API,18 SPCS,46301,SPACEBEE-20,PAYLOAD,U,20061AF,2023/4/4 3:48,281184,15.48415279,0.0004467,97.4139,170.4791,230.0592,130.0266,0,999,14290,0.0032645,0.00176715,0,3879550,0 SPACEBEE-20,1 46301U 20061AF  23094.15837131  .00176715  00000-0  32645-2 0  9999,2 46301  97.4139 170.4791 0004467 230.0592 130.0266 15.48415279142900,2020-061AF,46301,6799.498,92.998,424.401,418.326,1,
GENERATED VIA SPACETRACK.ORG API,18 SPCS,46301,SPACEBEE-20,PAYLOAD,U,20061AF,2023/4/4 3:48,281184,15.48415279,0.0004467,97.4139,170.4791,230.0592,130.0266,0,999,14290,0.0032645,0.00176715,0,3879974,0 SPACEBEE-20,1 46301U 20061AF  23094.15837131  .00176715  00000-0  32645-2 0  9999,2 46301  97.4139 170.4791 0004467 230.0592 130.0266 15.48415279142900,2020-061AF,46301,6799.498,92.998,424.401,418.326,1,
GENERATED VIA SPACETRACK.ORG API,18 SPCS,46301,SPACEBEE-20,PAYLOAD,U,20061AF,2023/4/5 4:36,224608,15.48759946,0.0004495,97.4136,171.5402,229.6231,130.4628,0,999,14306,0.0030854,0.0016886,0,3880442,0 SPACEBEE-20,1 46301U 20061AF  23095.19224797  .00168860  00000-0  30854-2 0  9994,2 46301  97.4136 171.5402 0004495 229.6231 130.4628 15.48759946143069,2020-061AF,46301,6798.49,92.978,423.41,417.299,1,
GENERATED VIA SPACETRACK.ORG API,18 SPCS,46301,SPACEBEE-20,PAYLOAD,U,20061AF,2023/4/5 4:36,224608,15.48759946,0.0004495,97.4136,171.5402,229.6231,130.4628,0,999,14306,0.0030854,0.0016886,0,3880853,0 SPACEBEE-20,1 46301U 20061AF  23095.19224797  .00168860  00000-0  30854-2 0  9994,2 46301  97.4136 171.5402 0004495 229.6231 130.4628 15.48759946143069,2020-061AF,46301,6798.49,92.978,423.41,417.299,1,
GENERATED VIA SPACETRACK.ORG API,18 SPCS,46301,SPACEBEE-20,PAYLOAD,U,20061AF,2023/4/5 18:34,135328,15.48940076,0.0004538,97.413,172.1378,231.9071,128.1771,0,999,14315,0.0028738,0.00158047,0,3881054,0 SPACEBEE-20,1 46301U 20061AF  23095.77370527  .00158047  00000-0  28738-2 0  9995,2 46301  97.4130 172.1378 0004538 231.9071 128.1771 15.48940076143157,2020-061AF,46301,6797.962,92.967,422.912,416.743,1,
GENERATED VIA SPACETRACK.ORG API,18 SPCS,46301,SPACEBEE-20,PAYLOAD,U,20061AF,2023/4/5 18:34,135328,15.48940076,0.0004538,97.413,172.1378,231.9071,128.1771,0,999,14315,0.0028738,0.00158047,0,3881153,0 SPACEBEE-20,1 46301U 20061AF  23095.77370527  .00158047  00000-0  28738-2 0  9995,2 46301  97.4130 172.1378 0004538 231.9071 128.1771 15.48940076143157,2020-061AF,46301,6797.962,92.967,422.912,416.743,1,
GENERATED VIA SPACETRACK.ORG API,18 SPCS,46301,SPACEBEE-20,PAYLOAD,U,20061AF,2023/4/6 3:52,618944,15.49070745,0.0004568,97.4126,172.5351,229.5044,130.5809,0,999,14321,0.0028607,0.00158045,0,3881771,0 SPACEBEE-20,1 46301U 20061AF  23096.16130346  .00158045  00000-0  28607-2 0  9995,2 46301  97.4126 172.5351 0004568 229.5044 130.5809 15.49070745143217,2020-061AF,46301,6797.58,92.959,422.55,416.34,1,
GENERATED VIA SPACETRACK.ORG API,18 SPCS,46301,SPACEBEE-20,PAYLOAD,U,20061AF,2023/4/6 3:52,618944,15.49070745,0.0004568,97.4126,172.5351,229.5044,130.5809,0,999,14321,0.0028607,0.00158045,0,3881917,0 SPACEBEE-20,1 46301U 20061AF  23096.16130346  .00158045  00000-0  28607-2 0  9995,2 46301  97.4126 172.5351 0004568 229.5044 130.5809 15.49070745143217,2020-061AF,46301,6797.58,92.959,422.55,416.34,1,
GENERATED VIA SPACETRACK.ORG API,18 SPCS,46301,SPACEBEE-20,PAYLOAD,U,20061AF,2023/4/6 22:28,752288,15.49313328,0.0004534,97.4122,173.3314,229.4091,130.6766,0,999,14333,0.002818,0.00156988,0,3882049,0 SPACEBEE-20,1 46301U 20061AF  23096.93640917  .00156988  00000-0  28180-2 0  9990,2 46301  97.4122 173.3314 0004534 229.4091 130.6766 15.49313328143338,2020-061AF,46301,6796.871,92.944,421.817,415.654,1,
GENERATED VIA SPACETRACK.ORG API,18 SPCS,46301,SPACEBEE-20,PAYLOAD,U,20061AF,2023/4/7 4:40,349024,15.49406223,0.0004556,97.412,173.5967,229.5571,130.5283,0,999,14337,0.0030076,0.00168345,0,3882218,0 SPACEBEE-20,1 46301U 20061AF  23097.19474941  .00168345  00000-0  30076-2 0  9998,2 46301  97.4120 173.5967 0004556 229.5571 130.5283 15.49406223143374,2020-061AF,46301,6796.599,92.939,421.56,415.367,1,
